SWARM A                 
1 39452U 13067B   26193.83096226  .00007228  00000+0  12196-3 0  9997
2 39452  87.3302  46.7070 0003307  94.4465 265.7174 15.51429553710221
SWARM C                 
1 39453U 13067C   26193.83086800  .00007274  00000+0  12274-3 0  9993
2 39453  87.3302  45.2879 0003291  94.4251 265.7386 15.51428989710180
BRITE-CA1 (TORONTO)     
1 40020U 14033L   26192.83734130  .00000569  00000+0  93137-4 0  9992
2 40020  97.9767 321.3152 0078193 197.0405 162.8175 14.72718584645848
OCO 2                   
1 40059U 14035A   26193.83771907  .00000183  00000+0  50681-4 0  9999
2 40059  98.2021 134.7411 0001447  80.9829 279.1534 14.57131231639787
BRITE-PL2 (HEWELIUSZ)   
1 40119U 14049B   26193.74610884  .00000856  00000+0  84332-4 0  9994
2 40119  97.9118 305.9469 0014565  30.2363 329.9695 14.94683534645269
MMS 1                   
1 40482U 15011A   26193.91668980 -.00001377  00000+0  00000+0 0  9991
2 40482  72.5113 348.4401 8305578 167.9590  43.1994  0.28387258  1358
MMS 2                   
1 40483U 15011B   26193.91668980 -.00001378  00000+0  00000+0 0  9993
2 40483  72.5154 348.4391 8308395 167.9619  43.1871  0.28387211  1357
MMS 3                   
1 40484U 15011C   26193.91668980 -.00001377  00000+0  00000+0 0  9993
2 40484  72.5159 348.4504 8306886 167.9722  43.1523  0.28384016  1328
MMS 4                   
1 40485U 15011D   26193.91668980 -.00001377  00000+0  00000+0 0  9994
2 40485  72.5107 348.4344 8306704 167.9793  43.1559  0.28387295  1388
ASTROSAT                
1 40930U 15052A   26192.78050286  .00001187  00000+0  62854-4 0  9990
2 40930   5.9982 338.3312 0007756  22.2669 337.7795 14.82549129583480
DAMPE                   
1 41173U 15078A   26193.85746624  .00000999  00000+0  36080-4 0  9997
2 41173  97.4564 199.4513 0011861 354.1177   5.9922 15.30850576588479
PISAT                   
1 41784U 16059B   26193.55077442  .00000470  00000+0  87652-4 0  9992
2 41784  97.8189 192.9148 0030347 122.9134 237.4998 14.69026784523460
HXMT (HUIYAN)           
1 42758U 17034A   26193.85219997  .00002781  00000+0  14151-3 0  9994
2 42758  43.0152  40.1103 0032518 306.3947  53.3904 15.18677056501560
FLYING LAPTOP           
1 42831U 17042G   26193.84730935  .00002325  00000+0  18449-3 0  9992
2 42831  97.4789 348.4132 0019817  39.9468 320.3210 15.01304050490300
ZHANGHENG 1-01 (CSES-1) 
1 43194U 18015C   26193.86380069  .00004594  00000+0  21234-3 0  9993
2 43194  97.6882   0.0368 0016188 172.8326 187.3143 15.20590439468545
SALSAT                  
1 46495U 20068K   26192.54062004  .00004447  00000+0  15528-3 0  9997
2 46495  97.8855 197.0941 0008823 206.5203 153.5586 15.30139435319080
IXPE                    
1 49954U 21121A   26193.83335647  .00008297  00000+0  43448-3 0  9999
2 49954   0.2288 123.2319 0007037 105.3192   3.4029 15.10476887  5822
