OBJECT_NAME,OBJECT_ID,EPOCH,MEAN_MOTION,ECCENTRICITY,INCLINATION,RA_OF_ASC_NODE,ARG_OF_PERICENTER,MEAN_ANOMALY,EPHEMERIS_TYPE,CLASSIFICATION_TYPE,NORAD_CAT_ID,ELEMENT_SET_NO,REV_AT_EPOCH,BSTAR,MEAN_MOTION_DOT,MEAN_MOTION_DDOT
SWARM A,2013-067B,2026-07-12T19:56:35.139264,15.51429553,.0003307,87.3302,46.7070,94.4465,265.7174,0,U,39452,999,71022,.12196E-3,.7228E-4,0
SWARM C,2013-067C,2026-07-12T19:56:26.995200,15.51428989,.0003291,87.3302,45.2879,94.4251,265.7386,0,U,39453,999,71018,.12274E-3,.7274E-4,0
BRITE-CA1 (TORONTO),2014-033L,2026-07-11T20:05:46.288320,14.72718584,.00781937,97.9767,321.3152,197.0405,162.8175,0,U,40020,999,64584,.93137253E-4,.569E-5,0
OCO 2,2014-035A,2026-07-12T20:06:18.927648,14.57131231,.0001447,98.2021,134.7411,80.9829,279.1534,0,U,40059,999,63978,.50681E-4,.183E-5,0
BRITE-PL2 (HEWELIUSZ),2014-049B,2026-07-12T17:54:23.803776,14.94683534,.0014565,97.9118,305.9469,30.2363,329.9695,0,U,40119,999,64526,.84332E-4,.856E-5,0
MMS 1,2015-011A,2026-07-12T22:00:01.998720,0.28387258,.8305578,72.5113,348.4401,167.9590,43.1994,0,U,40482,999,135,0,-.1377E-4,0
MMS 2,2015-011B,2026-07-12T22:00:01.998720,0.28387211,.8308395,72.5154,348.4391,167.9619,43.1871,0,U,40483,999,135,0,-.1378E-4,0
MMS 3,2015-011C,2026-07-12T22:00:01.998720,0.28384016,.8306886,72.5159,348.4504,167.9722,43.1523,0,U,40484,999,132,0,-.1377E-4,0
MMS 4,2015-011D,2026-07-12T22:00:01.998720,0.28387295,.8306704,72.5107,348.4344,167.9793,43.1559,0,U,40485,999,138,0,-.1377E-4,0
ASTROSAT,2015-052A,2026-07-11T18:43:55.447104,14.82549129,.00077569,5.9982,338.3312,22.2669,337.7795,0,U,40930,999,58348,.62854136E-4,.1187E-4,0
DAMPE,2015-078A,2026-07-12T20:34:45.083136,15.30850576,.0011861,97.4564,199.4513,354.1177,5.9922,0,U,41173,999,58847,.3608E-4,.999E-5,0
PISAT,2016-059B,2026-07-12T13:13:06.909888,14.69026784,.0030347,97.8189,192.9148,122.9134,237.4998,0,U,41784,999,52346,.87652E-4,.47E-5,0
HXMT (HUIYAN),2017-034A,2026-07-12T20:27:10.077408,15.18677056,.0032518,43.0152,40.1103,306.3947,53.3904,0,U,42758,999,50156,.14151E-3,.2781E-4,0
FLYING LAPTOP,2017-042G,2026-07-12T20:20:07.527840,15.01304050,.0019817,97.4789,348.4132,39.9468,320.3210,0,U,42831,999,49030,.18449E-3,.2325E-4,0
ZHANGHENG 1-01 (CSES-1),2018-015C,2026-07-12T20:43:52.379616,15.20590439,.0016188,97.6882,0.0368,172.8326,187.3143,0,U,43194,999,46854,.21234E-3,.4594E-4,0
SALSAT,2020-068K,2026-07-11T12:58:29.571456,15.30139435,.00088233,97.8855,197.0941,206.5203,153.5586,0,U,46495,999,31908,.15528118E-3,.4447E-4,0
IXPE,2021-121A,2026-07-12T20:00:01.999008,15.10476887,.0007037,0.2288,123.2319,105.3192,3.4029,0,U,49954,999,582,.43448E-3,.8297E-4,0
